GLOBALSTAR M063         
1 26081U 00008A   25196.91316887 -.00000102  00000+0 -28137-3 0  9999
2 26081  51.9970  35.9181 0004925  21.7611 124.0081 11.86173650160983
GLOBALSTAR M062         
1 26082U 00008B   25196.92236679 -.00000130  00000+0 -22714-3 0  9997
2 26082  51.9868  11.2811 0007344 166.2352 358.9378 12.43469369500199
GLOBALSTAR M060         
1 26083U 00008C   25196.81752517 -.00000207  00000+0 -11555-2 0  9995
2 26083  52.0043 335.6478 0003554 170.7704 355.8165 12.17664092155859
GLOBALSTAR M064         
1 26084U 00008D   25196.56914243 -.00000048  00000+0  49722-3 0  9994
2 26084  52.0019 135.3166 0001437  92.2998 267.7999 11.88534997170471
GLOBALSTAR M065         
1 31571U 07020A   25196.81065317 -.00000082  00000+0  12025-3 0  9993
2 31571  51.9881 139.1460 0010455  12.9135  19.7401 12.62010226837025
GLOBALSTAR M069         
1 31573U 07020C   25196.21027536 -.00000059  00000+0  30804-3 0  9999
2 31573  51.9942 125.9064 0000651 204.4524 301.4139 12.23447088837559
GLOBALSTAR M072         
1 31574U 07020D   25196.97353010 -.00000065  00000+0  25511-3 0  9998
2 31574  51.9932 275.3364 0000887  48.5774 124.0988 11.91650415834896
GLOBALSTAR M071         
1 31576U 07020F   25196.92084962 -.00000012  00000+0  78007-3 0  9992
2 31576  52.0042 150.3116 0000464 148.1846 246.7391 12.18256174498448
